{
  "type": "FeatureCollection",
  "features": [
    {
      "type": "Feature",
      "properties": {
        "norad_id": 51444,
        "name": "CSG-2",
        "group": "resource",
        "lat": 46.20012350479539,
        "lon": -13.765369860307953,
        "alt_km": 617.7895271530397,
        "timestamp": "2025-12-02T10:50:46.931113+00:00",
        "meta_object_name": "CSG-2",
        "meta_object_id": "2022-008A",
        "meta_epoch": "2025-12-02T03:46:00.631200",
        "meta_mean_motion": 14.8217063,
        "meta_eccentricity": 0.000145,
        "meta_inclination": 97.8807,
        "meta_ra_of_asc_node": 157.6394,
        "meta_arg_of_pericenter": 86.1227,
        "meta_mean_anomaly": 274.0151,
        "meta_ephemeris_type": 0,
        "meta_classification_type": "U",
        "meta_norad_cat_id": 51444,
        "meta_element_set_no": 999,
        "meta_rev_at_epoch": 20740,
        "meta_bstar": 8.0178e-05,
        "meta_mean_motion_dot": 5.86e-06,
        "meta_mean_motion_ddot": 0,
        "tle_line1": "1 51444U 22008A   25336.15695175  .00000586  00000+0  80178-4 0  9994",
        "tle_line2": "2 51444  97.8807 157.6394 0001450  86.1227 274.0151 14.82170630207405"
      },
      "geometry": {
        "type": "Point",
        "coordinates": [
          -13.765369860307953,
          46.20012350479539
        ]
      }
    },
    {
      "type": "Feature",
      "properties": {
        "norad_id": 52912,
        "name": "GAOFEN-12 03",
        "group": "resource",
        "lat": 34.914050053535114,
        "lon": 49.56314518157554,
        "alt_km": 627.7902016665594,
        "timestamp": "2025-12-02T10:50:46.931125+00:00",
        "meta_object_name": "GAOFEN-12 03",
        "meta_object_id": "2022-069A",
        "meta_epoch": "2025-12-02T05:19:33.196800",
        "meta_mean_motion": 14.79566581,
        "meta_eccentricity": 0.0002331,
        "meta_inclination": 97.8486,
        "meta_ra_of_asc_node": 223.8136,
        "meta_arg_of_pericenter": 77.3976,
        "meta_mean_anomaly": 282.7496,
        "meta_ephemeris_type": 0,
        "meta_classification_type": "U",
        "meta_norad_cat_id": 52912,
        "meta_element_set_no": 999,
        "meta_rev_at_epoch": 18548,
        "meta_bstar": 0.00019535,
        "meta_mean_motion_dot": 1.412e-05,
        "meta_mean_motion_ddot": 0,
        "tle_line1": "1 52912U 22069A   25336.22191200  .00001412  00000+0  19535-3 0  9997",
        "tle_line2": "2 52912  97.8486 223.8136 0002331  77.3976 282.7496 14.79566581185482"
      },
      "geometry": {
        "type": "Point",
        "coordinates": [
          49.56314518157554,
          34.914050053535114
        ]
      }
    },
    {
      "type": "Feature",
      "properties": {
        "norad_id": 54754,
        "name": "SWOT",
        "group": "resource",
        "lat": 6.739614257378567,
        "lon": 119.3897693491427,
        "alt_km": 894.8404710671412,
        "timestamp": "2025-12-02T10:50:46.931135+00:00",
        "meta_object_name": "SWOT",
        "meta_object_id": "2022-173A",
        "meta_epoch": "2025-12-02T04:52:41.517120",
        "meta_mean_motion": 14.00172119,
        "meta_eccentricity": 2.96e-05,
        "meta_inclination": 77.6099,
        "meta_ra_of_asc_node": 301.2139,
        "meta_arg_of_pericenter": 143.4026,
        "meta_mean_anomaly": 216.7145,
        "meta_ephemeris_type": 0,
        "meta_classification_type": "U",
        "meta_norad_cat_id": 54754,
        "meta_element_set_no": 999,
        "meta_rev_at_epoch": 15158,
        "meta_bstar": 3.2373e-05,
        "meta_mean_motion_dot": 4.5e-07,
        "meta_mean_motion_ddot": 0,
        "tle_line1": "1 54754U 22173A   25336.20325830  .00000045  00000+0  32373-4 0  9992",
        "tle_line2": "2 54754  77.6099 301.2139 0000296 143.4026 216.7145 14.00172119151583"
      },
      "geometry": {
        "type": "Point",
        "coordinates": [
          119.3897693491427,
          6.739614257378567
        ]
      }
    },
    {
      "type": "Feature",
      "properties": {
        "norad_id": 57654,
        "name": "GAOFEN-12 04",
        "group": "resource",
        "lat": -48.53740413021549,
        "lon": -98.57930335610702,
        "alt_km": 637.8173753032079,
        "timestamp": "2025-12-02T10:50:46.931146+00:00",
        "meta_object_name": "GAOFEN-12 04",
        "meta_object_id": "2023-123A",
        "meta_epoch": "2025-12-02T04:34:34.351104",
        "meta_mean_motion": 14.79647511,
        "meta_eccentricity": 0.0001476,
        "meta_inclination": 97.9112,
        "meta_ra_of_asc_node": 252.1087,
        "meta_arg_of_pericenter": 71.671,
        "meta_mean_anomaly": 288.4662,
        "meta_ephemeris_type": 0,
        "meta_classification_type": "U",
        "meta_norad_cat_id": 57654,
        "meta_element_set_no": 999,
        "meta_rev_at_epoch": 12349,
        "meta_bstar": 0.00023989,
        "meta_mean_motion_dot": 1.748e-05,
        "meta_mean_motion_ddot": 0,
        "tle_line1": "1 57654U 23123A   25336.19067536  .00001748  00000+0  23989-3 0  9997",
        "tle_line2": "2 57654  97.9112 252.1087 0001476  71.6710 288.4662 14.79647511123493"
      },
      "geometry": {
        "type": "Point",
        "coordinates": [
          -98.57930335610702,
          -48.53740413021549
        ]
      }
    },
    {
      "type": "Feature",
      "properties": {
        "norad_id": 59065,
        "name": "PARS 1",
        "group": "resource",
        "lat": -66.4630912864158,
        "lon": 109.65934890233092,
        "alt_km": 458.6322642817513,
        "timestamp": "2025-12-02T10:50:46.931156+00:00",
        "meta_object_name": "PARS 1",
        "meta_object_id": "2024-039Q",
        "meta_epoch": "2025-12-02T05:05:57.934176",
        "meta_mean_motion": 15.40614759,
        "meta_eccentricity": 0.0012645,
        "meta_inclination": 97.4616,
        "meta_ra_of_asc_node": 306.9264,
        "meta_arg_of_pericenter": 103.1403,
        "meta_mean_anomaly": 257.1255,
        "meta_ephemeris_type": 0,
        "meta_classification_type": "U",
        "meta_norad_cat_id": 59065,
        "meta_element_set_no": 999,
        "meta_rev_at_epoch": 9826,
        "meta_bstar": 0.00035151,
        "meta_mean_motion_dot": 0.00014273,
        "meta_mean_motion_ddot": 0,
        "tle_line1": "1 59065U 24039Q   25336.21247609  .00014273  00000+0  35151-3 0  9997",
        "tle_line2": "2 59065  97.4616 306.9264 0012645 103.1403 257.1255 15.40614759 98264"
      },
      "geometry": {
        "type": "Point",
        "coordinates": [
          109.65934890233092,
          -66.4630912864158
        ]
      }
    },
    {
      "type": "Feature",
      "properties": {
        "norad_id": 59371,
        "name": "RESURS-P 4",
        "group": "resource",
        "lat": -5.7693528526039355,
        "lon": -76.26799546623133,
        "alt_km": 473.051753187905,
        "timestamp": "2025-12-02T10:50:46.931167+00:00",
        "meta_object_name": "RESURS-P 4",
        "meta_object_id": "2024-061A",
        "meta_epoch": "2025-12-02T04:36:04.017888",
        "meta_mean_motion": 15.31952074,
        "meta_eccentricity": 0.0002258,
        "meta_inclination": 97.2524,
        "meta_ra_of_asc_node": 282.74,
        "meta_arg_of_pericenter": 55.8611,
        "meta_mean_anomaly": 304.2845,
        "meta_ephemeris_type": 0,
        "meta_classification_type": "U",
        "meta_norad_cat_id": 59371,
        "meta_element_set_no": 999,
        "meta_rev_at_epoch": 9359,
        "meta_bstar": 0.00017205,
        "meta_mean_motion_dot": 5.232e-05,
        "meta_mean_motion_ddot": 0,
        "tle_line1": "1 59371U 24061A   25336.19171317  .00005232  00000+0  17205-3 0  9996",
        "tle_line2": "2 59371  97.2524 282.7400 0002258  55.8611 304.2845 15.31952074 93591"
      },
      "geometry": {
        "type": "Point",
        "coordinates": [
          -76.26799546623133,
          -5.7693528526039355
        ]
      }
    },
    {
      "type": "Feature",
      "properties": {
        "norad_id": 59625,
        "name": "LEGION 1",
        "group": "resource",
        "lat": 74.89370750721599,
        "lon": 21.867000101438816,
        "alt_km": 509.2522918496097,
        "timestamp": "2025-12-02T10:50:46.931177+00:00",
        "meta_object_name": "LEGION 1",
        "meta_object_id": "2024-081A",
        "meta_epoch": "2025-12-02T02:35:23.665056",
        "meta_mean_motion": 15.16310197,
        "meta_eccentricity": 0.0004821,
        "meta_inclination": 97.523,
        "meta_ra_of_asc_node": 50.838,
        "meta_arg_of_pericenter": 358.9077,
        "meta_mean_anomaly": 1.2144,
        "meta_ephemeris_type": 0,
        "meta_classification_type": "U",
        "meta_norad_cat_id": 59625,
        "meta_element_set_no": 999,
        "meta_rev_at_epoch": 8766,
        "meta_bstar": 0.00031526,
        "meta_mean_motion_dot": 6.043e-05,
        "meta_mean_motion_ddot": 0,
        "tle_line1": "1 59625U 24081A   25336.10791279  .00006043  00000+0  31526-3 0  9999",
        "tle_line2": "2 59625  97.5230  50.8380 0004821 358.9077   1.2144 15.16310197 87666"
      },
      "geometry": {
        "type": "Point",
        "coordinates": [
          21.867000101438816,
          74.89370750721599
        ]
      }
    }
  ]
}